ONEWEB-0473             
1 51653U 22012AH  26177.11178696  .00004298  00000+0  12273-1 0  9997
2 51653  87.8831  34.4980 0001807  77.3169 282.8160 13.10355944210470
ONEWEB-0474             
1 51654U 22012AJ  26177.10327125  .00000246  00000+0  66870-3 0  9993
2 51654  87.8836  34.4863 0001579  79.8683 280.2623 13.10370894210466
ONEWEB-0475             
1 51655U 22012AK  26177.25875121  .00000148  00000+0  34810-3 0  9994
2 51655  87.9130   4.0676 0001279  79.2278 280.8997 13.17649767214886
ONEWEB-0490             
1 54113U 22138A   26176.85351937  .00000109  00000+0  24089-3 0  9998
2 54113  87.9180 303.2408 0001778 104.4194 255.7137 13.19725047177975
ONEWEB-0492             
1 54114U 22138B   26176.87878870 -.00000007  00000+0 -51022-4 0  9998
2 54114  87.9175 303.2366 0001970 107.4790 252.6558 13.19726672177981
ONEWEB-0495             
1 54115U 22138C   26176.85667891 -.00000038  00000+0 -12750-3 0  9994
2 54115  87.9176 303.2436 0001541 118.1460 241.9829 13.19724715177964
ONEWEB-0497             
1 54116U 22138D   26176.86931457  .00000004  00000+0 -22767-4 0  9990
2 54116  87.9185 303.2338 0001753 104.3236 255.8091 13.19725485177958
ONEWEB-0499             
1 54117U 22138E   26176.85271659 -.00000004  00000+0 -41545-4 0  9997
2 54117  87.9175 303.2455 0001686 102.4218 257.7104 13.19726507177965
ONEWEB-0500             
1 54118U 22138F   26176.85509906  .00000063  00000+0  12574-3 0  9999
2 54118  87.9179 303.2397 0001961 100.5113 259.6241 13.19724972177972
ONEWEB-0501             
1 54119U 22138G   26177.26419882 -.00000012  00000+0 -61470-4 0  9995
2 54119  87.9182 303.1582 0001586 110.3564 249.7739 13.19724098178000
ONEWEB-0502             
1 54120U 22138H   26177.24997446  .00000019  00000+0  14869-4 0  9997
2 54120  87.9183 303.1498 0001646 101.0392 259.0926 13.19724444178021
ONEWEB-0503             
1 54121U 22138J   26176.85983776 -.00000009  00000+0 -54141-4 0  9993
2 54121  87.9188 303.2335 0001841  91.9339 268.2005 13.19724842177967
ONEWEB-0504             
1 54122U 22138K   26176.84720412 -.00000016  00000+0 -72408-4 0  9993
2 54122  87.9184 303.2409 0001651 100.4504 259.6815 13.19725224177974
ONEWEB-0505             
1 54123U 22138L   26177.29893902  .00000081  00000+0  17047-3 0  9996
2 54123  87.9180 303.1518 0001521 108.6950 251.4348 13.19726415178012
ONEWEB-0506             
1 54124U 22138M   26177.27366880 -.00000006  00000+0 -48122-4 0  9993
2 54124  87.9185 303.1541 0001655 106.7266 253.4049 13.19724806178002
ONEWEB-0507             
1 54125U 22138N   26177.29420597  .00000065  00000+0  12956-3 0  9990
2 54125  87.9176 303.1613 0001767 105.8691 254.2637 13.19725536178057
ONEWEB-0508             
1 54126U 22138P   26177.29104292  .00000115  00000+0  25403-3 0  9999
2 54126  87.9175 303.1614 0001758 113.2101 246.9217 13.19725145178033
ONEWEB-0509             
1 54127U 22138Q   26177.26576542 -.00000033  00000+0 -11487-3 0  9996
2 54127  87.9185 303.1568 0001807 103.6518 256.4816 13.19725311178006
ONEWEB-0510             
1 54128U 22138R   26177.29858215  .00000041  00000+0  69404-4 0  9990
2 54128  87.9200 272.6206 0002361  91.4745 268.6659 13.20773282180483
ONEWEB-0511             
1 54129U 22138S   26177.26260526 -.00000009  00000+0 -55153-4 0  9992
2 54129  87.9181 303.1599 0001671  93.9477 266.1847 13.19726797178036
ONEWEB-0512             
1 54130U 22138T   26176.87562640 -.00000124  00000+0 -34126-3 0  9996
2 54130  87.9173 303.2412 0001586 101.7771 258.3540 13.19724722177953
ONEWEB-0513             
1 54131U 22138U   26177.25659517 -.00000027  00000+0 -10002-3 0  9999
2 54131  87.9184 303.1085 0000950  97.2436 262.8805 13.20269171177916
ONEWEB-0514             
1 54132U 22138V   26177.27050738 -.00000027  00000+0 -10005-3 0  9995
2 54132  87.9184 303.1575 0002011  96.5990 263.5371 13.19725824178027
ONEWEB-0515             
1 54133U 22138W   26177.28512642  .00000071  00000+0  14370-3 0  9990
2 54133  87.9200 272.6178 0002850 102.7507 257.3945 13.20771023180509
ONEWEB-0516             
1 54134U 22138X   26176.86614268  .00000034  00000+0  52774-4 0  9991
2 54134  87.9176 303.2431 0001874 103.8235 256.3106 13.19725415177977
ONEWEB-0517             
1 54135U 22138Y   26177.30052051  .00000080  00000+0  16756-3 0  9998
2 54135  87.9177 303.1499 0001853  90.4759 269.6586 13.19724840178039
ONEWEB-0518             
1 54136U 22138Z   26176.86456612  .00000089  00000+0  18933-3 0  9998
2 54136  87.9176 303.2457 0001919 105.4262 254.7083 13.19728360177973
ONEWEB-0519             
1 54137U 22138AA  26176.88984095 -.00000077  00000+0 -22415-3 0  9991
2 54137  87.9181 303.2327 0001850  94.0283 266.1062 13.19727076177984
ONEWEB-0520             
1 54138U 22138AB  26177.30368374  .00000101  00000+0  21889-3 0  9996
2 54138  87.9189 303.1506 0001688 106.4989 253.6330 13.19725149178025
ONEWEB-0521             
1 54139U 22138AC  26177.26102642 -.00000003  00000+0 -40362-4 0  9997
2 54139  87.9191 303.1477 0001888  92.3138 267.8211 13.19726555177966
