OBJECT_NAME,OBJECT_ID,EPOCH,MEAN_MOTION,ECCENTRICITY,INCLINATION,RA_OF_ASC_NODE,ARG_OF_PERICENTER,MEAN_ANOMALY,EPHEMERIS_TYPE,CLASSIFICATION_TYPE,NORAD_CAT_ID,ELEMENT_SET_NO,REV_AT_EPOCH,BSTAR,MEAN_MOTION_DOT,MEAN_MOTION_DDOT
ONEWEB-0473,2022-012AH,2026-06-26T02:40:58.393344,13.10355944,.00018076,87.8831,34.4980,77.3169,282.8160,0,U,51653,999,21047,.12273358E-1,.4298E-4,0
ONEWEB-0474,2022-012AJ,2026-06-26T02:28:42.636000,13.10370894,.00015796,87.8836,34.4863,79.8683,280.2623,0,U,51654,999,21046,.66870244E-3,.246E-5,0
ONEWEB-0475,2022-012AK,2026-06-26T06:12:36.104544,13.17649767,.00012797,87.9130,4.0676,79.2278,280.8997,0,U,51655,999,21488,.34809643E-3,.148E-5,0
ONEWEB-0490,2022-138A,2026-06-25T20:29:04.073568,13.19725047,.00017785,87.9180,303.2408,104.4194,255.7137,0,U,54113,999,17797,.24088648E-3,.109E-5,0
ONEWEB-0492,2022-138B,2026-06-25T21:05:27.343680,13.19726672,.00019708,87.9175,303.2366,107.4790,252.6558,0,U,54114,999,17798,-.51021602E-4,-.7E-7,0
ONEWEB-0495,2022-138C,2026-06-25T20:33:37.057824,13.19724715,.00015414,87.9176,303.2436,118.1460,241.9829,0,U,54115,999,17796,-.12750239E-3,-.38E-6,0
ONEWEB-0497,2022-138D,2026-06-25T20:51:48.778848,13.19725485,.00017536,87.9185,303.2338,104.3236,255.8091,0,U,54116,999,17795,-.22767058E-4,.4E-7,0
ONEWEB-0499,2022-138E,2026-06-25T20:27:54.713376,13.19726507,.00016862,87.9175,303.2455,102.4218,257.7104,0,U,54117,999,17796,-.41545065E-4,-.4E-7,0
ONEWEB-0500,2022-138F,2026-06-25T20:31:20.558784,13.19724972,.00019614,87.9179,303.2397,100.5113,259.6241,0,U,54118,999,17797,.12573888E-3,.63E-6,0
ONEWEB-0501,2022-138G,2026-06-26T06:20:26.778048,13.19724098,.00015869,87.9182,303.1582,110.3564,249.7739,0,U,54119,999,17800,-.61469609E-4,-.12E-6,0
ONEWEB-0502,2022-138H,2026-06-26T05:59:57.793344,13.19724444,.00016463,87.9183,303.1498,101.0392,259.0926,0,U,54120,999,17802,.14868913E-4,.19E-6,0
ONEWEB-0503,2022-138J,2026-06-25T20:38:09.982464,13.19724842,.00018411,87.9188,303.2335,91.9339,268.2005,0,U,54121,999,17796,-.54141153E-4,-.9E-7,0
ONEWEB-0504,2022-138K,2026-06-25T20:19:58.435968,13.19725224,.00016519,87.9184,303.2409,100.4504,259.6815,0,U,54122,999,17797,-.72407974E-4,-.16E-6,0
ONEWEB-0505,2022-138L,2026-06-26T07:10:28.331328,13.19726415,.00015219,87.9180,303.1518,108.6950,251.4348,0,U,54123,999,17801,.17047346E-3,.81E-6,0
ONEWEB-0506,2022-138M,2026-06-26T06:34:04.984320,13.19724806,.00016552,87.9185,303.1541,106.7266,253.4049,0,U,54124,999,17800,-.48121897E-4,-.6E-7,0
ONEWEB-0507,2022-138N,2026-06-26T07:03:39.395808,13.19725536,.00017678,87.9176,303.1613,105.8691,254.2637,0,U,54125,999,17805,.12956153E-3,.65E-6,0
ONEWEB-0508,2022-138P,2026-06-26T06:59:06.108288,13.19725145,.00017585,87.9175,303.1614,113.2101,246.9217,0,U,54126,999,17803,.25403159E-3,.115E-5,0
ONEWEB-0509,2022-138Q,2026-06-26T06:22:42.132288,13.19725311,.00018074,87.9185,303.1568,103.6518,256.4816,0,U,54127,999,17800,-.11486992E-3,-.33E-6,0
ONEWEB-0510,2022-138R,2026-06-26T07:09:57.497760,13.20773282,.00023615,87.9200,272.6206,91.4745,268.6659,0,U,54128,999,18048,.69403898E-4,.41E-6,0
ONEWEB-0511,2022-138S,2026-06-26T06:18:09.094464,13.19726797,.00016711,87.9181,303.1599,93.9477,266.1847,0,U,54129,999,17803,-.55152974E-4,-.9E-7,0
ONEWEB-0512,2022-138T,2026-06-25T21:00:54.120960,13.19724722,.00015862,87.9173,303.2412,101.7771,258.3540,0,U,54130,999,17795,-.34126086E-3,-.124E-5,0
ONEWEB-0513,2022-138U,2026-06-26T06:09:29.822688,13.20269171,.000095,87.9184,303.1085,97.2436,262.8805,0,U,54131,999,17791,-.10002077E-3,-.27E-6,0
ONEWEB-0514,2022-138V,2026-06-26T06:29:31.837632,13.19725824,.00020111,87.9184,303.1575,96.5990,263.5371,0,U,54132,999,17802,-.10005268E-3,-.27E-6,0
ONEWEB-0515,2022-138W,2026-06-26T06:50:34.922688,13.20771023,.00028509,87.9200,272.6178,102.7507,257.3945,0,U,54133,999,18050,.14370096E-3,.71E-6,0
ONEWEB-0516,2022-138X,2026-06-25T20:47:14.727552,13.19725415,.00018742,87.9176,303.2431,103.8235,256.3106,0,U,54134,999,17797,.52774131E-4,.34E-6,0
ONEWEB-0517,2022-138Y,2026-06-26T07:12:44.972064,13.19724840,.00018531,87.9177,303.1499,90.4759,269.6586,0,U,54135,999,17803,.16756013E-3,.8E-6,0
ONEWEB-0518,2022-138Z,2026-06-25T20:44:58.512768,13.19728360,.0001919,87.9176,303.2457,105.4262,254.7083,0,U,54136,999,17797,.18933364E-3,.89E-6,0
ONEWEB-0519,2022-138AA,2026-06-25T21:21:22.258080,13.19727076,.00018508,87.9181,303.2327,94.0283,266.1062,0,U,54137,999,17798,-.22414665E-3,-.77E-6,0
ONEWEB-0520,2022-138AB,2026-06-26T07:17:18.275136,13.19725149,.00016889,87.9189,303.1506,106.4989,253.6330,0,U,54138,999,17802,.21888759E-3,.101E-5,0
ONEWEB-0521,2022-138AC,2026-06-26T06:15:52.682688,13.19726555,.00018883,87.9191,303.1477,92.3138,267.8211,0,U,54139,999,17796,-.40362132E-4,-.3E-7,0
